HAWK-C                  
1 43799U 18099AT  26068.67261865  .00009431  00000+0  35663-3 0  9994
2 43799  97.4027 122.6817 0040363 277.4052  82.2601 15.26407167398720
STARLINK-2228           
1 48576U 21041Z   26068.81189104 -.00001021  00000+0 -22343-4 0  9995
2 48576  53.1600 100.4463 0001441  69.1924 290.9231 15.30193288265667
